H1 CPF  1  DLR 2021 04 17 10  6072 technosat            
H2  1704205 6203    42829 2021 04 17 00 00 00 2021 04 24 00 00 00    60 1 1  0 0 0
H9
10 0 59323  36000.000000  0       4245127.777      -1897657.938       5182206.785
10 0 59323  36060.000000  0       3889479.721      -1856231.726       5468472.005
10 0 59323  36120.000000  0       3517833.376      -1803792.165       5731499.270
10 0 59323  36180.000000  0       3131859.280      -1740431.163       5970181.689
10 0 59323  36240.000000  0       2733285.927      -1666301.330       6183516.732
10 0 59323  36300.000000  0       2323891.826      -1581615.720       6370610.240
10 0 59323  36360.000000  0       1905497.350      -1486647.276       6530679.925
10 0 59323  36420.000000  0       1479956.500      -1381727.926       6663058.396
10 0 59323  36480.000000  0       1049148.546      -1267247.369       6767195.699
10 0 59323  36540.000000  0        614969.661      -1143651.562       6842661.306
10 0 59323  36600.000000  0        179324.573      -1011440.919       6889145.663
10 0 59323  36660.000000  0       -255881.789       -871168.227       6906461.222
10 0 59323  36720.000000  0       -688752.531       -723436.332       6894543.022
10 0 59323  36780.000000  0      -1117407.013       -568895.516       6853448.850
10 0 59323  36840.000000  0      -1539988.955       -408240.612       6783358.848
10 0 59323  36900.000000  0      -1954674.366       -242207.888       6684574.686
10 0 59323  36960.000000  0      -2359679.339        -71571.692       6557518.304
10 0 59323  37020.000000  0      -2753267.682        102859.138       6402730.170
10 0 59323  37080.000000  0      -3133758.325        280245.050       6220867.059
10 0 59323  37140.000000  0      -3499532.508        459719.751       6012699.420
10 0 59323  37200.000000  0      -3849040.736        640394.357       5779108.232
10 0 59323  37260.000000  0      -4180809.399        821361.700       5521081.385
10 0 59323  37320.000000  0      -4493447.068       1001700.782       5239709.672
10 0 59323  37380.000000  0      -4785650.454       1180481.390       4936182.336
10 0 59323  37440.000000  0      -5056210.014       1356768.788       4611782.157
10 0 59323  37500.000000  0      -5304015.088       1529628.478       4267880.112
10 0 59323  37560.000000  0      -5528058.586       1698131.018       3905929.691
10 0 59323  37620.000000  0      -5727441.247       1861356.889       3527460.851
10 0 59323  37680.000000  0      -5901375.411       2018401.343       3134073.617
10 0 59323  37740.000000  0      -6049188.313       2168379.238       2727431.364
10 0 59323  37800.000000  0      -6170324.845       2310429.835       2309253.793
10 0 59323  37860.000000  0      -6264349.809       2443721.515       1881309.643
10 0 59323  37920.000000  0      -6330949.607       2567456.416       1445409.092
10 0 59323  37980.000000  0      -6369933.298       2680874.914       1003395.950
10 0 59323  38040.000000  0      -6381233.041       2783259.921        557139.745
10 0 59323  38100.000000  0      -6364904.043       2873941.006        108527.705
10 0 59323  38160.000000  0      -6321123.897       2952298.327       -340543.404
10 0 59323  38220.000000  0      -6250191.287       3017766.283       -788175.454
10 0 59323  38280.000000  0      -6152524.184       3069836.922      -1232477.101
10 0 59323  38340.000000  0      -6028657.481       3108063.094      -1671571.925
10 0 59323  38400.000000  0      -5879240.060       3132061.333      -2103606.563
10 0 59323  38460.000000  0      -5705031.218       3141514.352      -2526758.639
10 0 59323  38520.000000  0      -5506896.694       3136173.217      -2939244.469
10 0 59323  38580.000000  0      -5285804.240       3115859.198      -3339326.624
10 0 59323  38640.000000  0      -5042818.674       3080465.276      -3725321.247
10 0 59323  38700.000000  0      -4779096.546       3029957.298      -4095605.037
10 0 59323  38760.000000  0      -4495880.463       2964374.766      -4448621.951
10 0 59323  38820.000000  0      -4194493.057       2883831.250      -4782889.613
10 0 59323  38880.000000  0      -3876330.619       2788514.450      -5097005.311
10 0 59323  38940.000000  0      -3542856.511       2678685.930      -5389651.596
10 0 59323  39000.000000  0      -3195594.410       2554680.505      -5659601.538
10 0 59323  39060.000000  0      -2836121.337       2416905.289      -5905723.678
10 0 59323  39120.000000  0      -2466060.426       2265838.397      -6126986.570
10 0 59323  39180.000000  0      -2087073.535       2102027.263      -6322462.837
10 0 59323  39240.000000  0      -1700853.793       1926086.627      -6491332.719
10 0 59323  39300.000000  0      -1309118.190       1738696.277      -6632887.226
10 0 59323  39360.000000  0       -913600.081       1540598.466      -6746530.977
10 0 59323  39420.000000  0       -516041.603       1332594.977      -6831784.520
10 0 59323  39480.000000  0       -118186.207       1115543.963      -6888286.129
10 0 59323  39540.000000  0        278228.714        890356.543      -6915793.345
10 0 59323  39600.000000  0        671479.289        657993.093      -6914184.152
10 0 59323  39660.000000  0       1059862.631        419459.228      -6883457.577
10 0 59323  39720.000000  0       1441704.111        175801.545      -6823733.746
10 0 59323  39780.000000  0       1815364.432        -71896.854      -6735253.507
10 0 59323  39840.000000  0       2179246.532       -322521.016      -6618377.677
10 0 59323  39900.000000  0       2531802.395       -574929.030      -6473585.904
10 0 59323  39960.000000  0       2871539.720       -827957.147      -6301474.934
10 0 59323  40020.000000  0       3197028.211      -1080425.002      -6102756.378
10 0 59323  40080.000000  0       3506905.628      -1331140.962      -5878254.169
10 0 59323  40140.000000  0       3799883.682      -1578907.685      -5628901.614
10 0 59323  40200.000000  0       4074753.651      -1822527.851      -5355737.843
10 0 59323  40260.000000  0       4330391.585      -2060809.946      -5059903.790
10 0 59323  40320.000000  0       4565763.181      -2292574.091      -4742637.739
10 0 59323  40380.000000  0       4779928.240      -2516657.906      -4405270.419
10 0 59323  40440.000000  0       4972044.743      -2731922.369      -4049219.688
10 0 59323  40500.000000  0       5141372.514      -2937257.650      -3675984.792
10 0 59323  40560.000000  0       5287276.435      -3131588.888      -3287140.194
10 0 59323  40620.000000  0       5409229.200      -3313881.875      -2884329.009
10 0 59323  40680.000000  0       5506813.526      -3483148.609      -2469256.026
10 0 59323  40740.000000  0       5579723.792      -3638452.645      -2043680.443
10 0 59323  40800.000000  0       5627767.218      -3778914.289      -1609408.366
10 0 59323  40860.000000  0       5650864.483      -3903715.587      -1168284.934
10 0 59323  40920.000000  0       5649049.727      -4012104.987       -722186.240
10 0 59323  40980.000000  0       5622470.040      -4103401.706       -273011.128
10 0 59323  41040.000000  0       5571384.418      -4176999.825        177327.223
10 0 59323  41100.000000  0       5496162.039      -4232371.986        626909.824
10 0 59323  41160.000000  0       5397280.021      -4269072.725       1073820.388
10 0 59323  41220.000000  0       5275320.649      -4286741.360       1516153.907
10 0 59323  41280.000000  0       5130968.051      -4285104.406       1952025.146
10 0 59323  41340.000000  0       4965004.376      -4263977.545       2379576.971
10 0 59323  41400.000000  0       4778305.517      -4223267.185       2796988.528
10 0 59323  41460.000000  0       4571836.408      -4162971.548       3202483.253
10 0 59323  41520.000000  0       4346645.925      -4083181.304       3594336.634
10 0 59323  41580.000000  0       4103861.398      -3984079.773       3970883.740
10 0 59323  41640.000000  0       3844682.724      -3865942.645       4330526.448
10 0 59323  41700.000000  0       3570376.143      -3729137.169       4671740.301
10 0 59323  41760.000000  0       3282267.807      -3574120.882       4993080.899
10 0 59323  41820.000000  0       2981737.197      -3401439.959       5293189.935
10 0 59323  41880.000000  0       2670210.329      -3211727.140       5570800.895
10 0 59323  41940.000000  0       2349152.737      -3005699.171       5824744.267
10 0 59323  42000.000000  0       2020062.375      -2784153.893       6053952.229
10 0 59323  42060.000000  0       1684462.482      -2547966.965       6257462.882
10 0 59323  42120.000000  0       1343894.439      -2298088.237       6434424.036
10 0 59323  42180.000000  0        999910.587      -2035537.767       6584096.550
10 0 59323  42240.000000  0        654067.083      -1761401.504       6705857.128
10 0 59323  42300.000000  0        307916.861      -1476826.707       6799200.650
10 0 59323  42360.000000  0        -36997.323      -1183017.030       6863742.064
10 0 59323  42420.000000  0       -379149.744       -881227.330       6899217.715
10 0 59323  42480.000000  0       -717038.375       -572758.318       6905486.238
10 0 59323  42540.000000  0      -1049191.434       -258950.926       6882529.008
10 0 59323  42600.000000  0      -1374173.752         58819.523       6830450.071
10 0 59323  42660.000000  0      -1690592.884        379149.327       6749475.597
10 0 59323  42720.000000  0      -1997105.012        700612.575       6639952.887
10 0 59323  42780.000000  0      -2292420.618       1021767.441       6502348.891
10 0 59323  42840.000000  0      -2575309.864       1341162.604       6337248.256
10 0 59323  42900.000000  0      -2844607.666       1657343.748       6145350.945
10 0 59323  42960.000000  0      -3099218.502       1968860.142       5927469.420
10 0 59323  43020.000000  0      -3338120.915       2274271.284       5684525.372
10 0 59323  43080.000000  0      -3560371.663       2572153.576       5417545.954
10 0 59323  43140.000000  0      -3765109.501       2861106.962       5127659.559
99
